ONEWEB-0703             
1 56724U 23068Q   25328.89220000 -.00000025  00000+0 -10110-3 0  9998
2 56724  87.8968 299.9774 0002771  98.5127 261.6317 13.15548518122392
ONEWEB-0721             
1 56725U 23068R   25329.01022351  .00000181  00000+0  40061-3 0  9992
2 56725  86.6791 150.6436 0001440  88.5329 271.5969 13.22453726130955
ONEWEB-0015             
1 61594U 24188A   25328.98670700 -.00000508  00000+0 -14686-2 0  9996
2 61594  87.8863  61.7648 0001468 123.6385 236.4883 13.11416368 57691
ONEWEB-0687             
1 61595U 24188B   25328.96249455 -.00000079  00000+0 -23626-3 0  9992
2 61595  87.9112  46.5107 0001219 104.7442 255.3825 13.17650254 59002
ONEWEB-0688             
1 61596U 24188C   25328.76335196 -.00000017  00000+0 -76914-4 0  9990
2 61596  87.9121  46.5502 0001636 148.0609 212.0622 13.17647126 58975
ONEWEB-0689             
1 61597U 24188D   25329.02062505  .00000853  00000+0  23702-2 0  9993
2 61597  87.8845  61.6940 0001761 103.3616 256.7708 13.11414067 57691
ONEWEB-0690             
1 61598U 24188E   25328.95450705  .00000380  00000+0  10364-2 0  9993
2 61598  87.8885  61.7160 0002506 107.8808 252.2593 13.11415288 57869
ONEWEB-0691             
1 61599U 24188F   25329.02571538  .00000451  00000+0  12367-2 0  9995
2 61599  87.8828  61.6088 0001693 119.0204 241.1094 13.11416305 57725
ONEWEB-0692             
1 61600U 24188G   25328.96974345 -.00000157  00000+0 -48003-3 0  9995
2 61600  87.8857  61.7615 0001966  75.5280 284.6066 13.11414088 57705
ONEWEB-0693             
1 61601U 24188H   25328.77517125  .00000040  00000+0  70168-4 0  9991
2 61601  87.9120  46.5668 0002558 115.3987 244.7409 13.17647419 58963
ONEWEB-0695             
1 61602U 24188J   25329.02231899  .00000617  00000+0  17043-2 0  9993
2 61602  87.8860  61.7397 0001549  85.7098 274.4207 13.11416496 57704
ONEWEB-0697             
1 61603U 24188K   25328.97823030 -.00000443  00000+0 -12845-2 0  9995
2 61603  87.8859  61.7388 0001982  79.7966 280.3385 13.11416987 57686
ONEWEB-0698             
1 61604U 24188L   25329.10879459  .00000410  00000+0  11200-2 0  9994
2 61604  87.8860  61.7278 0002662  88.4402 271.7031 13.11415693 57725
ONEWEB-0699             
1 61605U 24188M   25329.03554147 -.00000468  00000+0 -13781-2 0  9992
2 61605  87.8818  76.9551 0001975  82.6004 277.5348 13.10372484 56577
ONEWEB-0700             
1 61606U 24188N   25329.03720647 -.00000737  00000+0 -21472-2 0  9998
2 61606  87.8822  76.8387 0001453  76.0061 284.1227 13.10375266 56560
ONEWEB-0701             
1 61607U 24188P   25329.05382633  .00000413  00000+0  11471-2 0  9997
2 61607  87.8811  76.9529 0002063  78.3283 281.8075 13.10373843 56572
ONEWEB-0702             
1 61608U 24188Q   25329.00195999 -.00000059  00000+0 -20313-3 0  9994
2 61608  87.8815  61.6412 0001835  73.5251 286.6079 13.11415440 57723
