[{"OBJECT_NAME":"ONEWEB-0703","OBJECT_ID":"2023-068Q","EPOCH":"2025-11-24T21:24:46.080000","MEAN_MOTION":13.15548518,"ECCENTRICITY":0.0002771,"INCLINATION":87.8968,"RA_OF_ASC_NODE":299.9774,"ARG_OF_PERICENTER":98.5127,"MEAN_ANOMALY":261.6317,"EPHEMERIS_TYPE":0,"CLASSIFICATION_TYPE":"U","NORAD_CAT_ID":56724,"ELEMENT_SET_NO":999,"REV_AT_EPOCH":12239,"BSTAR":-0.0001011,"MEAN_MOTION_DOT":-2.5e-7,"MEAN_MOTION_DDOT":0},{"OBJECT_NAME":"ONEWEB-0721","OBJECT_ID":"2023-068R","EPOCH":"2025-11-25T00:14:43.311264","MEAN_MOTION":13.22453726,"ECCENTRICITY":0.000144,"INCLINATION":86.6791,"RA_OF_ASC_NODE":150.6436,"ARG_OF_PERICENTER":88.5329,"MEAN_ANOMALY":271.5969,"EPHEMERIS_TYPE":0,"CLASSIFICATION_TYPE":"U","NORAD_CAT_ID":56725,"ELEMENT_SET_NO":999,"REV_AT_EPOCH":13095,"BSTAR":0.00040061,"MEAN_MOTION_DOT":1.81e-6,"MEAN_MOTION_DDOT":0},{"OBJECT_NAME":"ONEWEB-0015","OBJECT_ID":"2024-188A","EPOCH":"2025-11-24T23:40:51.484800","MEAN_MOTION":13.11416368,"ECCENTRICITY":0.0001468,"INCLINATION":87.8863,"RA_OF_ASC_NODE":61.7648,"ARG_OF_PERICENTER":123.6385,"MEAN_ANOMALY":236.4883,"EPHEMERIS_TYPE":0,"CLASSIFICATION_TYPE":"U","NORAD_CAT_ID":61594,"ELEMENT_SET_NO":999,"REV_AT_EPOCH":5769,"BSTAR":-0.0014686,"MEAN_MOTION_DOT":-5.08e-6,"MEAN_MOTION_DDOT":0},{"OBJECT_NAME":"ONEWEB-0687","OBJECT_ID":"2024-188B","EPOCH":"2025-11-24T23:05:59.529120","MEAN_MOTION":13.17650254,"ECCENTRICITY":0.0001219,"INCLINATION":87.9112,"RA_OF_ASC_NODE":46.5107,"ARG_OF_PERICENTER":104.7442,"MEAN_ANOMALY":255.3825,"EPHEMERIS_TYPE":0,"CLASSIFICATION_TYPE":"U","NORAD_CAT_ID":61595,"ELEMENT_SET_NO":999,"REV_AT_EPOCH":5900,"BSTAR":-0.00023626,"MEAN_MOTION_DOT":-7.9e-7,"MEAN_MOTION_DDOT":0},{"OBJECT_NAME":"ONEWEB-0688","OBJECT_ID":"2024-188C","EPOCH":"2025-11-24T18:19:13.609344","MEAN_MOTION":13.17647126,"ECCENTRICITY":0.0001636,"INCLINATION":87.9121,"RA_OF_ASC_NODE":46.5502,"ARG_OF_PERICENTER":148.0609,"MEAN_ANOMALY":212.0622,"EPHEMERIS_TYPE":0,"CLASSIFICATION_TYPE":"U","NORAD_CAT_ID":61596,"ELEMENT_SET_NO":999,"REV_AT_EPOCH":5897,"BSTAR":-7.6914e-5,"MEAN_MOTION_DOT":-1.7e-7,"MEAN_MOTION_DDOT":0},{"OBJECT_NAME":"ONEWEB-0689","OBJECT_ID":"2024-188D","EPOCH":"2025-11-25T00:29:42.004320","MEAN_MOTION":13.11414067,"ECCENTRICITY":0.0001761,"INCLINATION":87.8845,"RA_OF_ASC_NODE":61.694,"ARG_OF_PERICENTER":103.3616,"MEAN_ANOMALY":256.7708,"EPHEMERIS_TYPE":0,"CLASSIFICATION_TYPE":"U","NORAD_CAT_ID":61597,"ELEMENT_SET_NO":999,"REV_AT_EPOCH":5769,"BSTAR":0.0023702,"MEAN_MOTION_DOT":8.53e-6,"MEAN_MOTION_DDOT":0},{"OBJECT_NAME":"ONEWEB-0690","OBJECT_ID":"2024-188E","EPOCH":"2025-11-24T22:54:29.409120","MEAN_MOTION":13.11415288,"ECCENTRICITY":0.0002506,"INCLINATION":87.8885,"RA_OF_ASC_NODE":61.716,"ARG_OF_PERICENTER":107.8808,"MEAN_ANOMALY":252.2593,"EPHEMERIS_TYPE":0,"CLASSIFICATION_TYPE":"U","NORAD_CAT_ID":61598,"ELEMENT_SET_NO":999,"REV_AT_EPOCH":5786,"BSTAR":0.0010364,"MEAN_MOTION_DOT":3.8e-6,"MEAN_MOTION_DDOT":0},{"OBJECT_NAME":"ONEWEB-0691","OBJECT_ID":"2024-188F","EPOCH":"2025-11-25T00:37:01.808832","MEAN_MOTION":13.11416305,"ECCENTRICITY":0.0001693,"INCLINATION":87.8828,"RA_OF_ASC_NODE":61.6088,"ARG_OF_PERICENTER":119.0204,"MEAN_ANOMALY":241.1094,"EPHEMERIS_TYPE":0,"CLASSIFICATION_TYPE":"U","NORAD_CAT_ID":61599,"ELEMENT_SET_NO":999,"REV_AT_EPOCH":5772,"BSTAR":0.0012367,"MEAN_MOTION_DOT":4.51e-6,"MEAN_MOTION_DDOT":0},{"OBJECT_NAME":"ONEWEB-0692","OBJECT_ID":"2024-188G","EPOCH":"2025-11-24T23:16:25.834080","MEAN_MOTION":13.11414088,"ECCENTRICITY":0.0001966,"INCLINATION":87.8857,"RA_OF_ASC_NODE":61.7615,"ARG_OF_PERICENTER":75.528,"MEAN_ANOMALY":284.6066,"EPHEMERIS_TYPE":0,"CLASSIFICATION_TYPE":"U","NORAD_CAT_ID":61600,"ELEMENT_SET_NO":999,"REV_AT_EPOCH":5770,"BSTAR":-0.00048003,"MEAN_MOTION_DOT":-1.57e-6,"MEAN_MOTION_DDOT":0},{"OBJECT_NAME":"ONEWEB-0693","OBJECT_ID":"2024-188H","EPOCH":"2025-11-24T18:36:14.796000","MEAN_MOTION":13.17647419,"ECCENTRICITY":0.0002558,"INCLINATION":87.912,"RA_OF_ASC_NODE":46.5668,"ARG_OF_PERICENTER":115.3987,"MEAN_ANOMALY":244.7409,"EPHEMERIS_TYPE":0,"CLASSIFICATION_TYPE":"U","NORAD_CAT_ID":61601,"ELEMENT_SET_NO":999,"REV_AT_EPOCH":5896,"BSTAR":7.0168e-5,"MEAN_MOTION_DOT":4.0e-7,"MEAN_MOTION_DDOT":0},{"OBJECT_NAME":"ONEWEB-0695","OBJECT_ID":"2024-188J","EPOCH":"2025-11-25T00:32:08.360736","MEAN_MOTION":13.11416496,"ECCENTRICITY":0.0001549,"INCLINATION":87.886,"RA_OF_ASC_NODE":61.7397,"ARG_OF_PERICENTER":85.7098,"MEAN_ANOMALY":274.4207,"EPHEMERIS_TYPE":0,"CLASSIFICATION_TYPE":"U","NORAD_CAT_ID":61602,"ELEMENT_SET_NO":999,"REV_AT_EPOCH":5770,"BSTAR":0.0017043,"MEAN_MOTION_DOT":6.17e-6,"MEAN_MOTION_DDOT":0},{"OBJECT_NAME":"ONEWEB-0697","OBJECT_ID":"2024-188K","EPOCH":"2025-11-24T23:28:39.097920","MEAN_MOTION":13.11416987,"ECCENTRICITY":0.0001982,"INCLINATION":87.8859,"RA_OF_ASC_NODE":61.7388,"ARG_OF_PERICENTER":79.7966,"MEAN_ANOMALY":280.3385,"EPHEMERIS_TYPE":0,"CLASSIFICATION_TYPE":"U","NORAD_CAT_ID":61603,"ELEMENT_SET_NO":999,"REV_AT_EPOCH":5768,"BSTAR":-0.0012845,"MEAN_MOTION_DOT":-4.43e-6,"MEAN_MOTION_DDOT":0},{"OBJECT_NAME":"ONEWEB-0698","OBJECT_ID":"2024-188L","EPOCH":"2025-11-25T02:36:39.852576","MEAN_MOTION":13.11415693,"ECCENTRICITY":0.0002662,"INCLINATION":87.886,"RA_OF_ASC_NODE":61.7278,"ARG_OF_PERICENTER":88.4402,"MEAN_ANOMALY":271.7031,"EPHEMERIS_TYPE":0,"CLASSIFICATION_TYPE":"U","NORAD_CAT_ID":61604,"ELEMENT_SET_NO":999,"REV_AT_EPOCH":5772,"BSTAR":0.00112,"MEAN_MOTION_DOT":4.1e-6,"MEAN_MOTION_DDOT":0},{"OBJECT_NAME":"ONEWEB-0699","OBJECT_ID":"2024-188M","EPOCH":"2025-11-25T00:51:10.783008","MEAN_MOTION":13.10372484,"ECCENTRICITY":0.0001975,"INCLINATION":87.8818,"RA_OF_ASC_NODE":76.9551,"ARG_OF_PERICENTER":82.6004,"MEAN_ANOMALY":277.5348,"EPHEMERIS_TYPE":0,"CLASSIFICATION_TYPE":"U","NORAD_CAT_ID":61605,"ELEMENT_SET_NO":999,"REV_AT_EPOCH":5657,"BSTAR":-0.0013781,"MEAN_MOTION_DOT":-4.68e-6,"MEAN_MOTION_DDOT":0},{"OBJECT_NAME":"ONEWEB-0700","OBJECT_ID":"2024-188N","EPOCH":"2025-11-25T00:53:34.639008","MEAN_MOTION":13.10375266,"ECCENTRICITY":0.0001453,"INCLINATION":87.8822,"RA_OF_ASC_NODE":76.8387,"ARG_OF_PERICENTER":76.0061,"MEAN_ANOMALY":284.1227,"EPHEMERIS_TYPE":0,"CLASSIFICATION_TYPE":"U","NORAD_CAT_ID":61606,"ELEMENT_SET_NO":999,"REV_AT_EPOCH":5656,"BSTAR":-0.0021472,"MEAN_MOTION_DOT":-7.37e-6,"MEAN_MOTION_DDOT":0},{"OBJECT_NAME":"ONEWEB-0701","OBJECT_ID":"2024-188P","EPOCH":"2025-11-25T01:17:30.594912","MEAN_MOTION":13.10373843,"ECCENTRICITY":0.0002063,"INCLINATION":87.8811,"RA_OF_ASC_NODE":76.9529,"ARG_OF_PERICENTER":78.3283,"MEAN_ANOMALY":281.8075,"EPHEMERIS_TYPE":0,"CLASSIFICATION_TYPE":"U","NORAD_CAT_ID":61607,"ELEMENT_SET_NO":999,"REV_AT_EPOCH":5657,"BSTAR":0.0011471,"MEAN_MOTION_DOT":4.13e-6,"MEAN_MOTION_DDOT":0},{"OBJECT_NAME":"ONEWEB-0702","OBJECT_ID":"2024-188Q","EPOCH":"2025-11-25T00:02:49.343136","MEAN_MOTION":13.1141544,"ECCENTRICITY":0.0001835,"INCLINATION":87.8815,"RA_OF_ASC_NODE":61.6412,"ARG_OF_PERICENTER":73.5251,"MEAN_ANOMALY":286.6079,"EPHEMERIS_TYPE":0,"CLASSIFICATION_TYPE":"U","NORAD_CAT_ID":61608,"ELEMENT_SET_NO":999,"REV_AT_EPOCH":5772,"BSTAR":-0.00020313,"MEAN_MOTION_DOT":-5.9e-7,"MEAN_MOTION_DDOT":0}]
